{"type": "FeatureCollection", "features": [{"type": "Feature", "properties": {"norad_id": 50032, "name": "COSMOS 1408 DEB", "group": "cosmos-1408-debris", "lat": 2.9247863274186336, "lon": -123.40877910812625, "alt_km": 422.6360226332863, "timestamp": "2025-12-14T05:42:18.730381+00:00", "meta": {"OBJECT_NAME": "COSMOS 1408 DEB", "OBJECT_ID": "1982-092RU", "EPOCH": "2025-12-13T16:30:42.898464", "MEAN_MOTION": 15.45706661, "ECCENTRICITY": 0.00153319, "INCLINATION": 82.5644, "RA_OF_ASC_NODE": 57.5369, "ARG_OF_PERICENTER": 204.9886, "MEAN_ANOMALY": 155.0622, "EPHEMERIS_TYPE": 0, "CLASSIFICATION_TYPE": "U", "NORAD_CAT_ID": 50032, "ELEMENT_SET_NO": 999, "REV_AT_EPOCH": 22618, "BSTAR": 0.00013399008, "MEAN_MOTION_DOT": 6.537e-05, "MEAN_MOTION_DDOT": 0}, "tle": {"line1": "1 50032U 82092RU  25347.68799651  .00006537  00000+0  13399-3 0  9991", "line2": "2 50032  82.5644  57.5369 0015331 204.9886 155.0622 15.45706661226187"}}, "geometry": {"type": "Point", "coordinates": [-123.40877910812625, 2.9247863274186336]}}, {"type": "Feature", "properties": {"norad_id": 50058, "name": "COSMOS 1408 DEB", "group": "cosmos-1408-debris", "lat": 60.822437142676144, "lon": -125.66076362459505, "alt_km": 359.6368331482281, "timestamp": "2025-12-14T05:42:18.730402+00:00", "meta": {"OBJECT_NAME": "COSMOS 1408 DEB", "OBJECT_ID": "1982-092SW", "EPOCH": "2025-12-13T06:10:19.981344", "MEAN_MOTION": 15.64148339, "ECCENTRICITY": 0.00162595, "INCLINATION": 82.6137, "RA_OF_ASC_NODE": 68.8001, "ARG_OF_PERICENTER": 96.5116, "MEAN_ANOMALY": 263.7995, "EPHEMERIS_TYPE": 0, "CLASSIFICATION_TYPE": "U", "NORAD_CAT_ID": 50058, "ELEMENT_SET_NO": 999, "REV_AT_EPOCH": 22812, "BSTAR": 0.00050124618, "MEAN_MOTION_DOT": 0.00048053, "MEAN_MOTION_DDOT": 0}, "tle": {"line1": "1 50058U 82092SW  25347.25717571  .00048053  00000+0  50125-3 0  9990", "line2": "2 50058  82.6137  68.8001 0016259  96.5116 263.7995 15.64148339228121"}}, "geometry": {"type": "Point", "coordinates": [-125.66076362459505, 60.822437142676144]}}, {"type": "Feature", "properties": {"norad_id": 50404, "name": "COSMOS 1408 DEB", "group": "cosmos-1408-debris", "lat": -40.08131995021166, "lon": -153.12162803807018, "alt_km": 598.1091068716532, "timestamp": "2025-12-14T05:42:18.730416+00:00", "meta": {"OBJECT_NAME": "COSMOS 1408 DEB", "OBJECT_ID": "1982-092ADS", "EPOCH": "2025-12-13T15:36:46.976544", "MEAN_MOTION": 15.13985061, "ECCENTRICITY": 0.01712289, "INCLINATION": 82.2035, "RA_OF_ASC_NODE": 214.1008, "ARG_OF_PERICENTER": 195.758, "MEAN_ANOMALY": 163.8287, "EPHEMERIS_TYPE": 0, "CLASSIFICATION_TYPE": "U", "NORAD_CAT_ID": 50404, "ELEMENT_SET_NO": 999, "REV_AT_EPOCH": 21207, "BSTAR": 0.0029876166, "MEAN_MOTION_DOT": 0.00078948, "MEAN_MOTION_DDOT": 0}, "tle": {"line1": "1 50404U 82092ADS 25347.65054371  .00078948  00000+0  29876-2 0  9995", "line2": "2 50404  82.2035 214.1008 0171228 195.7580 163.8287 15.13985061212073"}}, "geometry": {"type": "Point", "coordinates": [-153.12162803807018, -40.08131995021166]}}, {"type": "Feature", "properties": {"norad_id": 50621, "name": "COSMOS 1408 DEB", "group": "cosmos-1408-debris", "lat": 81.50913347321278, "lon": -168.32412066996713, "alt_km": 377.7085496925456, "timestamp": "2025-12-14T05:42:18.730427+00:00", "meta": {"OBJECT_NAME": "COSMOS 1408 DEB", "OBJECT_ID": "1982-092ALR", "EPOCH": "2025-12-13T12:19:56.887968", "MEAN_MOTION": 15.56719842, "ECCENTRICITY": 0.00288915, "INCLINATION": 82.5702, "RA_OF_ASC_NODE": 73.3741, "ARG_OF_PERICENTER": 149.625, "MEAN_ANOMALY": 210.6687, "EPHEMERIS_TYPE": 0, "CLASSIFICATION_TYPE": "U", "NORAD_CAT_ID": 50621, "ELEMENT_SET_NO": 999, "REV_AT_EPOCH": 22262, "BSTAR": 0.0005541649, "MEAN_MOTION_DOT": 0.00040495, "MEAN_MOTION_DDOT": 0}, "tle": {"line1": "1 50621U 82092ALR 25347.51385287  .00040495  00000+0  55416-3 0  9990", "line2": "2 50621  82.5702  73.3741 0028891 149.6250 210.6687 15.56719842222622"}}, "geometry": {"type": "Point", "coordinates": [-168.32412066996713, 81.50913347321278]}}]}